[{"OBJECT_NAME":"STARLINK-35251","OBJECT_ID":"2025-207N","EPOCH":"2026-03-20T05:01:19.530048","MEAN_MOTION":15.05660421,"ECCENTRICITY":0.0001194,"INCLINATION":97.6003,"RA_OF_ASC_NODE":149.0229,"ARG_OF_PERICENTER":136.2493,"MEAN_ANOMALY":223.8828,"EPHEMERIS_TYPE":0,"CLASSIFICATION_TYPE":"U","NORAD_CAT_ID":65604,"ELEMENT_SET_NO":999,"REV_AT_EPOCH":2984,"BSTAR":-0.00016669,"MEAN_MOTION_DOT":-2.466e-5,"MEAN_MOTION_DDOT":0},{"OBJECT_NAME":"STARLINK-35171","OBJECT_ID":"2025-207P","EPOCH":"2026-03-20T04:41:24.357120","MEAN_MOTION":15.05654558,"ECCENTRICITY":5.66e-5,"INCLINATION":97.6034,"RA_OF_ASC_NODE":149.0421,"ARG_OF_PERICENTER":108.0709,"MEAN_ANOMALY":252.058,"EPHEMERIS_TYPE":0,"CLASSIFICATION_TYPE":"U","NORAD_CAT_ID":65605,"ELEMENT_SET_NO":999,"REV_AT_EPOCH":2968,"BSTAR":0.00014264,"MEAN_MOTION_DOT":1.998e-5,"MEAN_MOTION_DDOT":0},{"OBJECT_NAME":"STARLINK-35195","OBJECT_ID":"2025-207Q","EPOCH":"2026-03-20T04:05:31.499808","MEAN_MOTION":15.05652586,"ECCENTRICITY":5.3e-5,"INCLINATION":97.6029,"RA_OF_ASC_NODE":149.0765,"ARG_OF_PERICENTER":121.8914,"MEAN_ANOMALY":238.2364,"EPHEMERIS_TYPE":0,"CLASSIFICATION_TYPE":"U","NORAD_CAT_ID":65606,"ELEMENT_SET_NO":999,"REV_AT_EPOCH":2984,"BSTAR":0.00012817,"MEAN_MOTION_DOT":1.789e-5,"MEAN_MOTION_DDOT":0},{"OBJECT_NAME":"STARLINK-35156","OBJECT_ID":"2025-207R","EPOCH":"2026-03-20T04:13:31.351584","MEAN_MOTION":15.05635952,"ECCENTRICITY":7.3e-5,"INCLINATION":97.6028,"RA_OF_ASC_NODE":149.0679,"ARG_OF_PERICENTER":95.4661,"MEAN_ANOMALY":264.6649,"EPHEMERIS_TYPE":0,"CLASSIFICATION_TYPE":"U","NORAD_CAT_ID":65607,"ELEMENT_SET_NO":999,"REV_AT_EPOCH":2984,"BSTAR":0.0001059,"MEAN_MOTION_DOT":1.467e-5,"MEAN_MOTION_DDOT":0},{"OBJECT_NAME":"STARLINK-35185","OBJECT_ID":"2025-207S","EPOCH":"2026-03-20T04:49:22.517184","MEAN_MOTION":15.05655532,"ECCENTRICITY":4.69e-5,"INCLINATION":97.6029,"RA_OF_ASC_NODE":149.0347,"ARG_OF_PERICENTER":211.2302,"MEAN_ANOMALY":148.8897,"EPHEMERIS_TYPE":0,"CLASSIFICATION_TYPE":"U","NORAD_CAT_ID":65608,"ELEMENT_SET_NO":999,"REV_AT_EPOCH":2984,"BSTAR":0.00011155,"MEAN_MOTION_DOT":1.549e-5,"MEAN_MOTION_DDOT":0},{"OBJECT_NAME":"STARLINK-35053","OBJECT_ID":"2025-207T","EPOCH":"2026-03-20T04:25:27.687936","MEAN_MOTION":15.05652359,"ECCENTRICITY":0.0001006,"INCLINATION":97.604,"RA_OF_ASC_NODE":149.0572,"ARG_OF_PERICENTER":113.7186,"MEAN_ANOMALY":246.4146,"EPHEMERIS_TYPE":0,"CLASSIFICATION_TYPE":"U","NORAD_CAT_ID":65609,"ELEMENT_SET_NO":999,"REV_AT_EPOCH":2968,"BSTAR":0.00022506,"MEAN_MOTION_DOT":3.188e-5,"MEAN_MOTION_DDOT":0},{"OBJECT_NAME":"STARLINK-35178","OBJECT_ID":"2025-207U","EPOCH":"2026-03-20T03:29:37.360320","MEAN_MOTION":15.05657126,"ECCENTRICITY":6.51e-5,"INCLINATION":97.603,"RA_OF_ASC_NODE":148.9533,"ARG_OF_PERICENTER":114.4634,"MEAN_ANOMALY":245.6661,"EPHEMERIS_TYPE":0,"CLASSIFICATION_TYPE":"U","NORAD_CAT_ID":65610,"ELEMENT_SET_NO":999,"REV_AT_EPOCH":2983,"BSTAR":0.00025525,"MEAN_MOTION_DOT":3.625e-5,"MEAN_MOTION_DDOT":0},{"OBJECT_NAME":"STARLINK-35186","OBJECT_ID":"2025-207V","EPOCH":"2026-03-20T04:01:31.422720","MEAN_MOTION":15.05665573,"ECCENTRICITY":7.29e-5,"INCLINATION":97.6015,"RA_OF_ASC_NODE":148.9256,"ARG_OF_PERICENTER":100.3964,"MEAN_ANOMALY":259.7345,"EPHEMERIS_TYPE":0,"CLASSIFICATION_TYPE":"U","NORAD_CAT_ID":65611,"ELEMENT_SET_NO":999,"REV_AT_EPOCH":2983,"BSTAR":0.00020573,"MEAN_MOTION_DOT":2.91e-5,"MEAN_MOTION_DDOT":0},{"OBJECT_NAME":"STARLINK-35154","OBJECT_ID":"2025-207W","EPOCH":"2026-03-20T04:17:29.191776","MEAN_MOTION":15.05652761,"ECCENTRICITY":9.08e-5,"INCLINATION":97.6032,"RA_OF_ASC_NODE":149.0655,"ARG_OF_PERICENTER":110.2456,"MEAN_ANOMALY":249.8868,"EPHEMERIS_TYPE":0,"CLASSIFICATION_TYPE":"U","NORAD_CAT_ID":65612,"ELEMENT_SET_NO":999,"REV_AT_EPOCH":2968,"BSTAR":0.00017032,"MEAN_MOTION_DOT":2.398e-5,"MEAN_MOTION_DDOT":0},{"OBJECT_NAME":"STARLINK-35162","OBJECT_ID":"2025-207X","EPOCH":"2026-03-20T04:37:25.246848","MEAN_MOTION":15.05663592,"ECCENTRICITY":4.51e-5,"INCLINATION":97.6033,"RA_OF_ASC_NODE":149.0467,"ARG_OF_PERICENTER":123.6342,"MEAN_ANOMALY":236.4928,"EPHEMERIS_TYPE":0,"CLASSIFICATION_TYPE":"U","NORAD_CAT_ID":65613,"ELEMENT_SET_NO":999,"REV_AT_EPOCH":2984,"BSTAR":0.00028814,"MEAN_MOTION_DOT":4.101e-5,"MEAN_MOTION_DDOT":0},{"OBJECT_NAME":"STARLINK-35206","OBJECT_ID":"2025-207Y","EPOCH":"2026-03-20T03:37:35.850432","MEAN_MOTION":15.05654539,"ECCENTRICITY":4.61e-5,"INCLINATION":97.6026,"RA_OF_ASC_NODE":148.9458,"ARG_OF_PERICENTER":108.8005,"MEAN_ANOMALY":251.3272,"EPHEMERIS_TYPE":0,"CLASSIFICATION_TYPE":"U","NORAD_CAT_ID":65614,"ELEMENT_SET_NO":999,"REV_AT_EPOCH":2972,"BSTAR":0.00032943,"MEAN_MOTION_DOT":4.696e-5,"MEAN_MOTION_DDOT":0},{"OBJECT_NAME":"STARLINK-35174","OBJECT_ID":"2025-207Z","EPOCH":"2026-03-20T03:49:33.533760","MEAN_MOTION":15.05654501,"ECCENTRICITY":5.57e-5,"INCLINATION":97.6014,"RA_OF_ASC_NODE":148.9327,"ARG_OF_PERICENTER":119.0518,"MEAN_ANOMALY":241.0764,"EPHEMERIS_TYPE":0,"CLASSIFICATION_TYPE":"U","NORAD_CAT_ID":65615,"ELEMENT_SET_NO":999,"REV_AT_EPOCH":2983,"BSTAR":0.00023307,"MEAN_MOTION_DOT":3.304e-5,"MEAN_MOTION_DDOT":0},{"OBJECT_NAME":"STARLINK-35247","OBJECT_ID":"2025-210A","EPOCH":"2026-03-19T23:19:57.648000","MEAN_MOTION":15.30205379,"ECCENTRICITY":0.000101,"INCLINATION":53.1571,"RA_OF_ASC_NODE":259.4454,"ARG_OF_PERICENTER":109.8036,"MEAN_ANOMALY":250.3074,"EPHEMERIS_TYPE":0,"CLASSIFICATION_TYPE":"U","NORAD_CAT_ID":65622,"ELEMENT_SET_NO":999,"REV_AT_EPOCH":2930,"BSTAR":0.00085947,"MEAN_MOTION_DOT":0.00025186,"MEAN_MOTION_DDOT":0},{"OBJECT_NAME":"STARLINK-35239","OBJECT_ID":"2025-210B","EPOCH":"2026-03-20T04:42:57.378816","MEAN_MOTION":15.30200518,"ECCENTRICITY":0.0001281,"INCLINATION":53.1579,"RA_OF_ASC_NODE":257.9958,"ARG_OF_PERICENTER":85.2165,"MEAN_ANOMALY":274.8982,"EPHEMERIS_TYPE":0,"CLASSIFICATION_TYPE":"U","NORAD_CAT_ID":65623,"ELEMENT_SET_NO":999,"REV_AT_EPOCH":2934,"BSTAR":0.00043149,"MEAN_MOTION_DOT":0.00012442,"MEAN_MOTION_DDOT":0},{"OBJECT_NAME":"STARLINK-35151","OBJECT_ID":"2025-210C","EPOCH":"2026-03-19T21:54:59.510592","MEAN_MOTION":15.30216701,"ECCENTRICITY":0.0001529,"INCLINATION":53.1624,"RA_OF_ASC_NODE":259.7841,"ARG_OF_PERICENTER":51.1779,"MEAN_ANOMALY":308.9358,"EPHEMERIS_TYPE":0,"CLASSIFICATION_TYPE":"U","NORAD_CAT_ID":65624,"ELEMENT_SET_NO":999,"REV_AT_EPOCH":2921,"BSTAR":0.00060519,"MEAN_MOTION_DOT":0.00017617,"MEAN_MOTION_DDOT":0},{"OBJECT_NAME":"STARLINK-35153","OBJECT_ID":"2025-210D","EPOCH":"2026-03-19T22:19:08.627808","MEAN_MOTION":15.30202301,"ECCENTRICITY":8.66e-5,"INCLINATION":53.1558,"RA_OF_ASC_NODE":259.1769,"ARG_OF_PERICENTER":89.6212,"MEAN_ANOMALY":270.4888,"EPHEMERIS_TYPE":0,"CLASSIFICATION_TYPE":"U","NORAD_CAT_ID":65625,"ELEMENT_SET_NO":999,"REV_AT_EPOCH":2922,"BSTAR":0.00074908,"MEAN_MOTION_DOT":0.00021893,"MEAN_MOTION_DDOT":0},{"OBJECT_NAME":"STARLINK-35225","OBJECT_ID":"2025-210E","EPOCH":"2026-03-19T19:42:56.834496","MEAN_MOTION":15.30200373,"ECCENTRICITY":7.523e-5,"INCLINATION":53.1595,"RA_OF_ASC_NODE":259.9243,"ARG_OF_PERICENTER":78.255,"MEAN_ANOMALY":281.8535,"EPHEMERIS_TYPE":0,"CLASSIFICATION_TYPE":"U","NORAD_CAT_ID":65626,"ELEMENT_SET_NO":999,"REV_AT_EPOCH":2928,"BSTAR":0.00060863447,"MEAN_MOTION_DOT":0.0001771,"MEAN_MOTION_DDOT":0}]
