STARLINK-35251          
1 65604U 25207N   26079.20925382 -.00002466  00000+0 -16669-3 0  9992
2 65604  97.6003 149.0229 0001194 136.2493 223.8828 15.05660421 29844
STARLINK-35171          
1 65605U 25207P   26079.19542080  .00001998  00000+0  14264-3 0  9997
2 65605  97.6034 149.0421 0000566 108.0709 252.0580 15.05654558 29687
STARLINK-35195          
1 65606U 25207Q   26079.17050347  .00001789  00000+0  12817-3 0  9996
2 65606  97.6029 149.0765 0000530 121.8914 238.2364 15.05652586 29848
STARLINK-35156          
1 65607U 25207R   26079.17605731  .00001467  00000+0  10590-3 0  9999
2 65607  97.6028 149.0679 0000730  95.4661 264.6649 15.05635952 29846
STARLINK-35185          
1 65608U 25207S   26079.20095506  .00001549  00000+0  11155-3 0  9996
2 65608  97.6029 149.0347 0000469 211.2302 148.8897 15.05655532 29843
STARLINK-35053          
1 65609U 25207T   26079.18434824  .00003188  00000+0  22506-3 0  9997
2 65609  97.6040 149.0572 0001006 113.7186 246.4146 15.05652359 29689
STARLINK-35178          
1 65610U 25207U   26079.14557130  .00003625  00000+0  25525-3 0  9991
2 65610  97.6030 148.9533 0000651 114.4634 245.6661 15.05657126 29833
STARLINK-35186          
1 65611U 25207V   26079.16772480  .00002910  00000+0  20573-3 0  9995
2 65611  97.6015 148.9256 0000729 100.3964 259.7345 15.05665573 29835
STARLINK-35154          
1 65612U 25207W   26079.17881009  .00002398  00000+0  17032-3 0  9991
2 65612  97.6032 149.0655 0000908 110.2456 249.8868 15.05652761 29683
STARLINK-35162          
1 65613U 25207X   26079.19265332  .00004101  00000+0  28814-3 0  9993
2 65613  97.6033 149.0467 0000451 123.6342 236.4928 15.05663592 29842
STARLINK-35206          
1 65614U 25207Y   26079.15110938  .00004696  00000+0  32943-3 0  9998
2 65614  97.6026 148.9458 0000461 108.8005 251.3272 15.05654539 29721
STARLINK-35174          
1 65615U 25207Z   26079.15941590  .00003304  00000+0  23307-3 0  9994
2 65615  97.6014 148.9327 0000557 119.0518 241.0764 15.05654501 29836
STARLINK-35247          
1 65622U 25210A   26078.97219500  .00025186  00000+0  85947-3 0  9994
2 65622  53.1571 259.4454 0001010 109.8036 250.3074 15.30205379 29307
STARLINK-35239          
1 65623U 25210B   26079.19649744  .00012442  00000+0  43149-3 0  9996
2 65623  53.1579 257.9958 0001281  85.2165 274.8982 15.30200518 29341
STARLINK-35151          
1 65624U 25210C   26078.91318878  .00017617  00000+0  60519-3 0  9996
2 65624  53.1624 259.7841 0001529  51.1779 308.9358 15.30216701 29215
STARLINK-35153          
1 65625U 25210D   26078.92996097  .00021893  00000+0  74908-3 0  9991
2 65625  53.1558 259.1769 0000866  89.6212 270.4888 15.30202301 29229
STARLINK-35225          
1 65626U 25210E   26078.82149114  .00017710  00000+0  60863-3 0  9999
2 65626  53.1595 259.9243 0000752  78.2550 281.8535 15.30200373 29287
